[
    {
        "Altitude(m)": 605459.004652536,
        "Argument of Periapsis(deg)": 0.0,
        "Eccentricity": 0.0,
        "Inclination(deg)": 60.0,
        "Latitude(deg)": 27.988135603541703,
        "Longitude(deg)": -107.20139518199971,
        "Mean Anomaly(deg)": -327.2727,
        "RAAN(deg)": 335.0,
        "Satellite Name": "Test1 1476",
        "Satellite Number": 1476,
        "Semi-Major Axis(m)": 6980739.136638005,
        "Time(s)": 0
    },
    {
        "Altitude(m)": 605535.7953095698,
        "Argument of Periapsis(deg)": 0.00010418945913296404,
        "Eccentricity": 0.0,
        "Inclination(deg)": 60.0,
        "Latitude(deg)": 28.501264884090272,
        "Longitude(deg)": -106.844449932308,
        "Mean Anomaly(deg)": -326.65259385453817,
        "RAAN(deg)": 334.99957995086027,
        "Satellite Name": "Test1 1476",
        "Satellite Number": 1476,
        "Semi-Major Axis(m)": 6980739.136638005,
        "Time(s)": 10
    }
]